COSMOS 2550             
1 48865U 21056A   25303.75426200  .00000738  00000+0  28247-4 0  9998
2 48865  67.1406  74.0113 0008403 269.9185  90.1007 15.33832526243530
CZ-2C R/B               
1 52794U 22058K   25303.07719997  .00033352  00000+0  65689-3 0  9998
2 52794  50.1914 265.7122 0050693  16.3935 343.8657 15.45469246189879
GSLV R/B                
1 54149U 22138AN  25303.24215913  .00004451  00000+0  39555-3 0  9992
2 54149  87.3854 210.0284 0018982 265.9491  93.9570 14.95767940164423
XRISM                   
1 57800U 23137A   25303.00850720  .00008746  00000+0  52410-3 0  9990
2 57800  31.0030  47.7483 0008211 164.1259 195.9638 15.09650225118019
ACS3                    
1 59588U 24077B   25303.16264403  .00020286  00000+0  18513-1 0  9990
2 59588  97.3396 268.4105 0031718  30.6767 329.6239 13.82885479 76113
